start=new Date('2022-06-30T00:00:00.000Z').valueOf();
sats=[{"EPOCH":"2022-06-29T21:39:13.885920","EPHEMERIS_TYPE":"0","ELEMENT_SET_NO":"999","COUNTRY_CODE":"US","TIME_SYSTEM":"UTC","RA_OF_ASC_NODE":"46.5580","LAUNCH_DATE":"2021-05-26","OBJECT_TYPE":"PAYLOAD","MEAN_ELEMENT_THEORY":"SGP4","INCLINATION":"53.0575","RCS_SIZE":"LARGE","APOAPSIS":"548.279","GP_ID":"207119412","SEMIMAJOR_AXIS":"6925.357","ARG_OF_PERICENTER":"77.0901","REV_AT_EPOCH":"6055","OBJECT_NAME":"STARLINK-2719","MEAN_MOTION_DOT":"0.00001687","REF_FRAME":"TEME","BSTAR":"0.00013215000000","CLASSIFICATION_TYPE":"U","MEAN_MOTION_DDOT":"0.0000000000000","PERIOD":"95.592","ECCENTRICITY":"0.00015250","FILE":"3505610","CENTER_NAME":"EARTH","NORAD_CAT_ID":"48677","SITE":"AFETR","MEAN_MOTION":"15.06397107","TLE_LINE1":"1 48677U 21044AR  22180.90224405  .00001687  00000-0  13215-3 0  9999","TLE_LINE2":"2 48677  53.0575  46.5580 0001525  77.0901 283.0259 15.06397107 60558","DECAY_DATE":null,"PERIAPSIS":"546.166","OBJECT_ID":"2021-044AR","MEAN_ANOMALY":"283.0259"},{"SITE":"AFETR","MEAN_MOTION":"15.06389476","PERIAPSIS":"546.116","DECAY_DATE":null,"OBJECT_ID":"2021-044AS","MEAN_ANOMALY":"290.9205","TLE_LINE1":"1 48678U 21044AS  22180.89951406 -.00000050  00000-0  15542-4 0  9996","TLE_LINE2":"2 48678  53.0561  46.5777 0001631  69.1959 290.9205 15.06389476 60553","CLASSIFICATION_TYPE":"U","BSTAR":"0.00001554200000","REF_FRAME":"TEME","MEAN_MOTION_DOT":"-0.00000050","OBJECT_NAME":"STARLINK-2615","FILE":"3505610","NORAD_CAT_ID":"48678","CENTER_NAME":"EARTH","PERIOD":"95.593","MEAN_MOTION_DDOT":"0.0000000000000","ECCENTRICITY":"0.00016310","ARG_OF_PERICENTER":"69.1959","GP_ID":"207118663","SEMIMAJOR_AXIS":"6925.381","REV_AT_EPOCH":"6055","COUNTRY_CODE":"US","OBJECT_TYPE":"PAYLOAD","LAUNCH_DATE":"2021-05-26","TIME_SYSTEM":"UTC","RA_OF_ASC_NODE":"46.5777","EPOCH":"2022-06-29T21:35:18.014784","ELEMENT_SET_NO":"999","EPHEMERIS_TYPE":"0","INCLINATION":"53.0561","RCS_SIZE":"LARGE","APOAPSIS":"548.375","MEAN_ELEMENT_THEORY":"SGP4"},{"MEAN_ANOMALY":"283.8592","OBJECT_ID":"2021-044AT","PERIAPSIS":"546.232","DECAY_DATE":null,"TLE_LINE2":"2 48679  53.0561  46.6003 0001417  76.2555 283.8592 15.06400024 60553","TLE_LINE1":"1 48679U 21044AT  22180.89582344  .00000980  00000-0  84659-4 0  9994","SITE":"AFETR","MEAN_MOTION":"15.06400024","CENTER_NAME":"EARTH","FILE":"3505610","NORAD_CAT_ID":"48679","ECCENTRICITY":"0.00014170","PERIOD":"95.592","MEAN_MOTION_DDOT":"0.0000000000000","CLASSIFICATION_TYPE":"U","BSTAR":"0.00008465900000","REF_FRAME":"TEME","MEAN_MOTION_DOT":"0.00000980","OBJECT_NAME":"STARLINK-2648","REV_AT_EPOCH":"6055","ARG_OF_PERICENTER":"76.2555","GP_ID":"207118913","SEMIMAJOR_AXIS":"6925.348","APOAPSIS":"548.195","RCS_SIZE":"LARGE","INCLINATION":"53.0561","MEAN_ELEMENT_THEORY":"SGP4","OBJECT_TYPE":"PAYLOAD","LAUNCH_DATE":"2021-05-26","TIME_SYSTEM":"UTC","RA_OF_ASC_NODE":"46.6003","COUNTRY_CODE":"US","ELEMENT_SET_NO":"999","EPHEMERIS_TYPE":"0","EPOCH":"2022-06-29T21:29:59.145216"},{"TLE_LINE2":"2 48680  53.0550  46.6208 0001843  67.8076 292.3109 15.06396801 60553","TLE_LINE1":"1 48680U 21044AU  22180.89213700  .00000732  00000-0  68049-4 0  9993","MEAN_ANOMALY":"292.3109","OBJECT_ID":"2021-044AU","PERIAPSIS":"545.947","DECAY_DATE":null,"MEAN_MOTION":"15.06396801","SITE":"AFETR","ECCENTRICITY":"0.00018430","PERIOD":"95.592","MEAN_MOTION_DDOT":"0.0000000000000","FILE":"3505610","NORAD_CAT_ID":"48680","CENTER_NAME":"EARTH","OBJECT_NAME":"STARLINK-2649","MEAN_MOTION_DOT":"0.00000732","BSTAR":"0.00006804900000","CLASSIFICATION_TYPE":"U","REF_FRAME":"TEME","REV_AT_EPOCH":"6055","GP_ID":"207119662","SEMIMAJOR_AXIS":"6925.358","ARG_OF_PERICENTER":"67.8076","MEAN_ELEMENT_THEORY":"SGP4","APOAPSIS":"548.500","INCLINATION":"53.0550","RCS_SIZE":"LARGE","ELEMENT_SET_NO":"999","EPHEMERIS_TYPE":"0","EPOCH":"2022-06-29T21:24:40.636800","LAUNCH_DATE":"2021-05-26","OBJECT_TYPE":"PAYLOAD","RA_OF_ASC_NODE":"46.6208","TIME_SYSTEM":"UTC","COUNTRY_CODE":"US"},{"MEAN_ELEMENT_THEORY":"SGP4","INCLINATION":"53.0569","RCS_SIZE":"LARGE","APOAPSIS":"548.118","EPOCH":"2022-06-29T18:12:18.699264","ELEMENT_SET_NO":"999","EPHEMERIS_TYPE":"0","COUNTRY_CODE":"US","OBJECT_TYPE":"PAYLOAD","LAUNCH_DATE":"2021-05-26","TIME_SYSTEM":"UTC","RA_OF_ASC_NODE":"17.4382","REV_AT_EPOCH":"6094","SEMIMAJOR_AXIS":"6925.367","GP_ID":"207119913","ARG_OF_PERICENTER":"81.6285","PERIOD":"95.593","MEAN_MOTION_DDOT":"0.0000000000000","ECCENTRICITY":"0.00012800","FILE":"3505610","CENTER_NAME":"EARTH","NORAD_CAT_ID":"48681","MEAN_MOTION_DOT":"0.00000827","OBJECT_NAME":"STARLINK-2725","CLASSIFICATION_TYPE":"U","BSTAR":"0.00007442900000","REF_FRAME":"TEME","TLE_LINE1":"1 48681U 21044AV  22180.75854976  .00000827  00000-0  74429-4 0  9999","TLE_LINE2":"2 48681  53.0569  17.4382 0001280  81.6285 278.4849 15.06394039 60944","PERIAPSIS":"546.345","DECAY_DATE":null,"MEAN_ANOMALY":"278.4849","OBJECT_ID":"2021-044AV","SITE":"AFETR","MEAN_MOTION":"15.06394039"},{"FILE":"3505610","NORAD_CAT_ID":"48682","CENTER_NAME":"EARTH","ECCENTRICITY":"0.00016860","PERIOD":"95.594","MEAN_MOTION_DDOT":"0.0000000000000","CLASSIFICATION_TYPE":"U","BSTAR":"0.00241750000000","REF_FRAME":"TEME","OBJECT_NAME":"STARLINK-2743","MEAN_MOTION_DOT":"0.00035890","MEAN_ANOMALY":"97.0281","OBJECT_ID":"2021-044AW","PERIAPSIS":"546.114","DECAY_DATE":null,"TLE_LINE2":"2 48682  53.0567   6.6665 0001686  56.0628  97.0281 15.06377797  1306","TLE_LINE1":"1 48682U 21044AW  22180.91667824  .00035890  00000-0  24175-2 0  9991","SITE":"AFETR","MEAN_MOTION":"15.06377797","APOAPSIS":"548.449","RCS_SIZE":"LARGE","INCLINATION":"53.0567","MEAN_ELEMENT_THEORY":"SGP4","OBJECT_TYPE":"PAYLOAD","LAUNCH_DATE":"2021-05-26","TIME_SYSTEM":"UTC","RA_OF_ASC_NODE":"6.6665","COUNTRY_CODE":"US","ELEMENT_SET_NO":"999","EPHEMERIS_TYPE":"0","EPOCH":"2022-06-29T22:00:00.999936","REV_AT_EPOCH":"130","ARG_OF_PERICENTER":"56.0628","GP_ID":"207118163","SEMIMAJOR_AXIS":"6925.417"},{"ECCENTRICITY":"0.00015860","MEAN_MOTION_DDOT":"0.0000000000000","PERIOD":"95.593","FILE":"3505610","CENTER_NAME":"EARTH","NORAD_CAT_ID":"48683","MEAN_MOTION_DOT":"0.00000011","OBJECT_NAME":"STARLINK-2756","REF_FRAME":"TEME","BSTAR":"0.00001963400000","CLASSIFICATION_TYPE":"U","TLE_LINE2":"2 48683  53.0568   6.8393 0001586  70.9578 289.1583 15.06383163 61103","TLE_LINE1":"1 48683U 21044AX  22180.84423271  .00000011  00000-0  19634-4 0  9993","MEAN_ANOMALY":"289.1583","OBJECT_ID":"2021-044AX","DECAY_DATE":null,"PERIAPSIS":"546.167","SITE":"AFETR","MEAN_MOTION":"15.06383163","MEAN_ELEMENT_THEORY":"SGP4","APOAPSIS":"548.364","INCLINATION":"53.0568","RCS_SIZE":"LARGE","EPHEMERIS_TYPE":"0","ELEMENT_SET_NO":"999","EPOCH":"2022-06-29T20:15:41.706144","TIME_SYSTEM":"UTC","RA_OF_ASC_NODE":"6.8393","OBJECT_TYPE":"PAYLOAD","LAUNCH_DATE":"2021-05-26","COUNTRY_CODE":"US","REV_AT_EPOCH":"6110","SEMIMAJOR_AXIS":"6925.400","GP_ID":"207118413","ARG_OF_PERICENTER":"70.9578"},{"REV_AT_EPOCH":"6089","SEMIMAJOR_AXIS":"6925.389","GP_ID":"207119163","ARG_OF_PERICENTER":"72.3274","MEAN_ELEMENT_THEORY":"SGP4","APOAPSIS":"548.268","INCLINATION":"53.0556","RCS_SIZE":"LARGE","EPHEMERIS_TYPE":"0","ELEMENT_SET_NO":"999","EPOCH":"2022-06-29T20:48:15.982560","RA_OF_ASC_NODE":"22.0773","TIME_SYSTEM":"UTC","LAUNCH_DATE":"2021-05-26","OBJECT_TYPE":"PAYLOAD","COUNTRY_CODE":"US","TLE_LINE2":"2 48684  53.0556  22.0773 0001465  72.3274 287.7875 15.06386910 60894","TLE_LINE1":"1 48684U 21044AY  22180.86685165 -.00001571  00000-0 -86653-4 0  9997","MEAN_ANOMALY":"287.7875","OBJECT_ID":"2021-044AY","DECAY_DATE":null,"PERIAPSIS":"546.239","MEAN_MOTION":"15.06386910","SITE":"AFETR","ECCENTRICITY":"0.00014650","MEAN_MOTION_DDOT":"0.0000000000000","PERIOD":"95.593","NORAD_CAT_ID":"48684","FILE":"3505610","CENTER_NAME":"EARTH","MEAN_MOTION_DOT":"-0.00001571","OBJECT_NAME":"STARLINK-2741","REF_FRAME":"TEME","CLASSIFICATION_TYPE":"U","BSTAR":"-0.00008665300000"},{"MEAN_MOTION_DOT":"0.00001163","OBJECT_NAME":"STARLINK-2751","BSTAR":"0.00009695500000","CLASSIFICATION_TYPE":"U","REF_FRAME":"TEME","ECCENTRICITY":"0.00012980","PERIOD":"95.593","MEAN_MOTION_DDOT":"0.0000000000000","CENTER_NAME":"EARTH","FILE":"3505610","NORAD_CAT_ID":"48685","SITE":"AFETR","MEAN_MOTION":"15.06386973","TLE_LINE2":"2 48685  53.0572   7.0072 0001298  73.8471 286.2661 15.06386973 61108","TLE_LINE1":"1 48685U 21044AZ  22180.81474470  .00001163  00000-0  96955-4 0  9999","MEAN_ANOMALY":"286.2661","OBJECT_ID":"2021-044AZ","PERIAPSIS":"546.355","DECAY_DATE":null,"ELEMENT_SET_NO":"999","EPHEMERIS_TYPE":"0","EPOCH":"2022-06-29T19:33:13.942080","OBJECT_TYPE":"PAYLOAD","LAUNCH_DATE":"2021-05-26","RA_OF_ASC_NODE":"7.0072","TIME_SYSTEM":"UTC","COUNTRY_CODE":"US","MEAN_ELEMENT_THEORY":"SGP4","APOAPSIS":"548.152","INCLINATION":"53.0572","RCS_SIZE":"LARGE","GP_ID":"207119413","SEMIMAJOR_AXIS":"6925.388","ARG_OF_PERICENTER":"73.8471","REV_AT_EPOCH":"6110"},{"GP_ID":"207118664","SEMIMAJOR_AXIS":"6925.368","ARG_OF_PERICENTER":"59.7804","REV_AT_EPOCH":"6102","EPHEMERIS_TYPE":"0","ELEMENT_SET_NO":"999","EPOCH":"2022-06-29T19:24:38.480544","TIME_SYSTEM":"UTC","RA_OF_ASC_NODE":"12.2668","LAUNCH_DATE":"2021-05-26","OBJECT_TYPE":"PAYLOAD","COUNTRY_CODE":"US","MEAN_ELEMENT_THEORY":"SGP4","APOAPSIS":"548.411","INCLINATION":"53.0576","RCS_SIZE":"LARGE","MEAN_MOTION":"15.06393523","SITE":"AFETR","TLE_LINE2":"2 48686  53.0576  12.2668 0001701  59.7804 300.3353 15.06393523 61020","TLE_LINE1":"1 48686U 21044BA  22180.80877871  .00001340  00000-0  10885-3 0  9995","OBJECT_ID":"2021-044BA","MEAN_ANOMALY":"300.3353","DECAY_DATE":null,"PERIAPSIS":"546.055","MEAN_MOTION_DOT":"0.00001340","OBJECT_NAME":"STARLINK-2629","REF_FRAME":"TEME","CLASSIFICATION_TYPE":"U","BSTAR":"0.00010885000000","ECCENTRICITY":"0.00017010","MEAN_MOTION_DDOT":"0.0000000000000","PERIOD":"95.593","FILE":"3505610","CENTER_NAME":"EARTH","NORAD_CAT_ID":"48686"}];
